GSAT-14                 
1 39498U 14001A   22357.24285616 -.00000060  00000+0  00000+0 0  9997
2 39498   0.0366 117.2563 0005470 150.1814 345.7692  1.00271822 32634
THAICOM 6               
1 39500U 14002A   22358.49511905 -.00000110  00000+0  00000+0 0  9999
2 39500   0.0868 108.2101 0002211 142.9458  98.6250  1.00271247 32710
TDRS 12                 
1 39504U 14004A   22358.47522369 -.00000257  00000+0  00000+0 0  9991
2 39504   3.7166 350.9157 0001903 252.9995 339.0854  1.00265310 31532
ABS-2                   
1 39508U 14006A   22358.49442172 -.00000074  00000+0  00000+0 0  9999
2 39508   0.0232 343.8389 0002979 281.9702  80.1060  1.00271029 32549
ATHENA-FIDUS            
1 39509U 14006B   22358.48692553  .00000166  00000+0  00000+0 0  9990
2 39509   0.0174  76.3208 0001252 199.2380  30.5317  1.00268773 32332
TURKSAT 4A              
1 39522U 14007A   22358.33313359  .00000159  00000+0  00000+0 0  9996
2 39522   0.0607 265.2257 0004723   3.1765 346.3906  1.00267849 32242
EXPRESS-AT1             
1 39612U 14010A   22358.28382796  .00000090  00000+0  00000+0 0  9999
2 39612   0.0114 212.2494 0000315  69.2224 329.5434  1.00275690 32305
EXPRESS-AT2             
1 39613U 14010B   22357.85257897 -.00000266  00000+0  00000+0 0  9991
2 39613   0.0459 198.1477 0000191 317.2465  23.7621  1.00270905 32132
AMAZONAS 4A             
1 39616U 14011A   22358.46469841 -.00000240  00000+0  00000+0 0  9999
2 39616   0.0232 287.8772 0003469   1.2662 257.1187  1.00272363 31968
ASTRA 5B                
1 39617U 14011B   22358.48570522  .00000166  00000+0  00000+0 0  9997
2 39617   0.0324   2.3820 0003198 261.6271  35.3362  1.00267913 31924
IRNSS-1B                
1 39635U 14017A   22357.82341358  .00000127  00000+0  00000+0 0  9990
2 39635  29.2080 261.9424 0018231 184.8280 357.0903  1.00271208 32040
LUCH 5V                 
1 39727U 14023A   22358.49834416 -.00000257  00000+0  00000+0 0  9990
2 39727   1.9560  77.1103 0003052 217.5113  72.4471  1.00266277 31617
KAZSAT-3                
1 39728U 14023B   22358.49110946  .00000070  00000+0  00000+0 0  9998
2 39728   0.0366 105.1218 0000367 164.0644  59.1067  1.00282568 29703
EUTELSAT 3B             
1 39773U 14030A   22358.40804109  .00000032  00000+0  00000+0 0  9996
2 39773   0.0615  18.4991 0004985 206.6385  17.7630  1.00271521 31323
ASIASAT 8 (AMOS-7)      
1 40107U 14046A   22358.40690794 -.00000021  00000+0  00000+0 0  9998
2 40107   0.0160 312.2141 0001871 313.2631 330.0412  1.00271222 89402
ASIASAT 6               
1 40141U 14052A   22358.61646487 -.00000351  00000+0  00000+0 0  9992
2 40141   0.0178 259.8480 0000543  40.0415 135.0495  1.00268980 30420
OPTUS 10                
1 40146U 14054A   22358.51054727 -.00000136  00000+0  00000+0 0  9999
2 40146   0.1011  59.8297 0003514 229.2924 143.6954  1.00271082 30290
MEASAT-3B               
1 40147U 14054B   22358.49764683 -.00000230  00000+0  00000+0 0  9991
2 40147   0.0321  32.7938 0001708 300.9178  29.9167  1.00273645 30162
LUCH (OLYMP)            
1 40258U 14058A   22358.31577104 -.00000129  00000+0  00000+0 0  9996
2 40258   0.0136  15.0805 0000921 210.7029 322.6434  1.00267748 30195
HIMAWARI-8              
1 40267U 14060A   22358.50749648 -.00000264  00000+0  00000+0 0  9994
2 40267   0.0298 121.5448 0000926 166.0053 128.8302  1.00270899 30017
IRNSS-1C                
1 40269U 14061A   22358.49599069 -.00000152  00000+0  00000+0 0  9991
2 40269   3.3752 121.1929 0016910   9.6560 223.7417  1.00272987 29947
INTELSAT 30 (IS-30)     
1 40271U 14062A   22357.37896536 -.00000133  00000+0  00000+0 0  9999
2 40271   0.0150 351.4153 0002489 117.8294  24.0322  1.00272346 29839
ARSAT 1                 
1 40272U 14062B   22358.47827299 -.00000247  00000+0  00000+0 0  9998
2 40272   0.0151 351.9155 0001477 263.2631 298.1746  1.00272989 29876
EXPRESS-AM6             
1 40277U 14064A   22358.56171319  .00000109  00000+0  00000+0 0  9996
2 40277   0.0456 239.8804 0000401 177.0282 291.3736  1.00271693 29925
GSAT-16                 
1 40332U 14078A   22358.49041213  .00000097  00000+0  00000+0 0  9990
2 40332   0.0526 263.1924 0002789 214.8026 206.6160  1.00270546 29358
DIRECTV 14              
1 40333U 14078B   22358.50049287 -.00000113  00000+0  00000+0 0  9992
2 40333   0.0269  62.3299 0000487  98.5456  13.0712  1.00271233 29328
YAMAL 401               
1 40345U 14082A   22358.49738534 -.00000216  00000+0  00000+0 0  9992
2 40345   0.0173 335.0449 0000175  67.8514 319.0979  1.00270006 29679
ASTRA 2G                
1 40364U 14089A   22358.48509507  .00000162  00000+0  00000+0 0  9994
2 40364   0.0333 359.2336 0001473  26.3207 270.2850  1.00271695 29224
FENGYUN 2G              
1 40367U 14090A   22358.50570292 -.00000291  00000+0  00000+0 0  9995
2 40367   2.4118  87.5284 0000506 270.5192  16.1788  1.00284185 29257
MUOS-3                  
1 40374U 15002A   22358.40464164 -.00000118  00000+0  00000+0 0  9994
2 40374   2.6462  19.8178 0056998 183.2103  20.0966  1.00272097 28842
INMARSAT 5-F2           
1 40384U 15005A   22358.47271573 -.00000273  00000+0  00000+0 0  9997
2 40384   0.0177  16.2499 0000506 107.5658  84.3447  1.00267490 28256
ABS-3A                  
1 40424U 15010A   22358.26369017 -.00000014  00000+0  00000+0 0  9999
2 40424   0.0374  59.2329 0001524  98.9774  26.4750  1.00269298 28647
EUTELSAT 115 WEST B     
1 40425U 15010B   22358.50604736 -.00000012  00000+0  00000+0 0  9995
2 40425   0.0127 162.5376 0000109 152.6754 205.0817  1.00265256 28692
EXPRESS-AM7             
1 40505U 15012A   22358.28938510  .00000163  00000+0  00000+0 0  9997
2 40505   0.0121  43.3770 0002567 239.3097 314.2773  1.00272322 28261
IRNSS-1D                
1 40547U 15018A   22357.82052164 -.00000257  00000+0  00000+0 0  9995
2 40547  28.5854 261.9616 0018588 180.5704  57.0781  1.00272366 28498
BEIDOU 17               
1 40549U 15019A   22358.35426020 -.00000169  00000+0  00000+0 0  9995
2 40549  51.5597 310.5418 0037024 200.7365 161.7939  1.00256437 28348
THOR 7                  
1 40613U 15022A   22358.40751810  .00000004  00000+0  00000+0 0  9992
2 40613   0.0121  38.4711 0002534 232.6932 327.8061  1.00271034 28077
TURKMENALEM52E/MONACOSAT
1 40617U 15023A   22358.48980198  .00000115  00000+0  00000+0 0  9991
2 40617   0.0306  80.3920 0002459 185.2947  55.6432  1.00271689 28095
DIRECTV 15              
1 40663U 15026A   22358.43814816 -.00000090  00000+0  00000+0 0  9996
2 40663   0.0173  21.7880 0000283  62.1227  63.9026  1.00271151 27723
SKY MEXICO-1            
1 40664U 15026B   22358.48938451 -.00000222  00000+0  00000+0 0  9991
2 40664   0.0115 345.9155 0001888 290.8796 273.6158  1.00271068 27711
METEOSAT-11 (MSG-4)     
1 40732U 15034A   22358.12085520  .00000010  00000+0  00000+0 0  9991
2 40732   0.4698 356.7071 0000474  91.0594  48.4152  1.00273901 27272
STAR ONE C4             
1 40733U 15034B   22357.89169219 -.00000250  00000+0  00000+0 0  9990
2 40733   0.0232 339.6911 0002336 326.3001  37.4212  1.00269712 27272
WGS F7 (USA 263)        
1 40746U 15036A   22358.55466010  .00000029  00000+0  00000+0 0  9992
2 40746   0.0173  46.4055 0000196  31.0067  30.3202  1.00268325 27120
INTELSAT 34 (IS-34)     
1 40874U 15039A   22357.89456865 -.00000270  00000+0  00000+0 0  9999
2 40874   0.0249  20.2474 0000576 130.1338 208.5845  1.00270507 26873
EUTELSAT 8 WEST B       
1 40875U 15039B   22358.40612345 -.00000053  00000+0  00000+0 0  9994
2 40875   0.0642  17.8868 0002484 281.5449 291.7046  1.00271575 26901
GSAT-6                  
1 40880U 15041A   22358.49590353 -.00000149  00000+0  00000+0 0  9992
2 40880   0.0101  92.7812 0003150 164.2436  97.0685  1.00271019 26855
INMARSAT 5-F3           
1 40882U 15042A   22357.72620814  .00000064  00000+0  00000+0 0  9991
2 40882   0.0188  27.1943 0001088 104.2346  41.8441  1.00260515 26813
MUOS-4                  
1 40887U 15044A   22358.49433456 -.00000083  00000+0  00000+0 0  9999
2 40887   2.6019  15.1246 0054004 357.0250 333.8085  1.00271030 26812
TJS-1                   
1 40892U 15046A   22358.51037295 -.00000145  00000+0  00000+0 0  9990
2 40892   0.0427 299.7761 0004003  52.1445  79.7791  1.00271925 26822
EXPRESS-AM8             
1 40895U 15048A   22358.46594875 -.00000099  00000+0  00000+0 0  9999
2 40895   0.0264 212.5938 0000238  70.4279 323.6989  1.00271522 26639
BEIDOU 20               
1 40938U 15053A   22358.22391670 -.00000114  00000+0  00000+0 0  9993
2 40938  51.2064 273.6899 0043070 195.3490 157.3919  1.00294391 26601
SKY MUSTER 1 (NBN1A)    
1 40940U 15054A   22358.22132583 -.00000266  00000+0  00000+0 0  9991
2 40940   0.0164 329.8178 0001565 292.5919  50.2577  1.00268987 26513
ARSAT 2                 
1 40941U 15054B   22357.53087090 -.00000208  00000+0  00000+0 0  9993
2 40941   0.0151 341.7769 0001382 288.5694 291.8125  1.00270458 26575
MORELOS 3               
1 40946U 15056A   22358.50604736 -.00000029  00000+0  00000+0 0  9991
2 40946   3.4805 338.2253 0001933 349.2864 194.5651  1.00272156 26545
APSTAR 9                
1 40982U 15059A   22357.50350102 -.00000249  00000+0  00000+0 0  9992
2 40982   0.0365 112.4905 0002768 122.8821 179.9272  1.00270439 26403
TURKSAT 4B              
1 40984U 15060A   22358.48945332  .00000127  00000+0  00000+0 0  9993
2 40984   0.0181 358.0959 0001230 294.1365  26.9874  1.00267683 26368
CHINASAT 2C (ZX 2C)     
1 41021U 15063A   22357.36021512 -.00000306  00000+0  00000+0 0  9990
2 41021   0.0278 221.0569 0002329 152.8304 311.0645  1.00268509 26257
GSAT-15                 
1 41028U 15065A   22358.54216194 -.00000247  00000+0  00000+0 0  9996
2 41028   0.0142 296.6323 0001642 296.3882 148.7100  1.00271891 26060
BADR-7 (ARABSAT-6B)     
1 41029U 15065B   22358.48465924  .00000156  00000+0  00000+0 0  9995
2 41029   0.0512 237.6907 0005804   7.3285  48.4428  1.00268882 26027
